STARLINK-35574          
1 66111U 25236AB  25308.16668980 -.00028801  00000+0 -19303-3 0  9994
2 66111  53.1580 331.5212 0001183 102.5551 203.4165 15.74187251  3610
STARLINK-35531          
1 66112U 25236AC  25308.16668980 -.00014960  00000+0 -98060-4 0  9994
2 66112  53.1581 331.5130 0001027 126.8938 182.9117 15.74182287  3674
STARLINK-35491          
1 66113U 25236AD  25308.16668980 -.00009899  00000+0 -63402-4 0  9992
2 66113  53.1582 331.5171 0000704  97.3637 210.5054 15.74181592  3676
STARLINK-35496          
1 66114U 25237A   25308.16668980 -.01414715  00000+0 -10044-1 0  9993
2 66114  53.1526 271.2857 0000927  95.0108 182.7972 15.76047312  3280
STARLINK-35428          
1 66115U 25237B   25308.16668980 -.01466362  00000+0 -10461-1 0  9992
2 66115  53.1523 271.2817 0001058 111.2756 168.5122 15.76043218  3280
STARLINK-35573          
1 66116U 25237C   25308.16668980 -.01496249  00000+0 -10712-1 0  9999
2 66116  53.1524 271.2775 0001145 102.5280 179.2477 15.76025022  3282
STARLINK-35572          
1 66117U 25237D   25308.16668980 -.01471554  00000+0 -10533-1 0  9993
2 66117  53.1519 271.2694 0001048  96.3459 189.3974 15.75979715  3287
STARLINK-35468          
1 66118U 25237E   25308.16668980 -.01505610  00000+0 -10781-1 0  9990
2 66118  53.1521 271.2735 0001095 107.7829 175.8930 15.76039929  3284
STARLINK-35547          
1 66119U 25237F   25308.16668980 -.01617912  00000+0 -11583-1 0  9991
2 66119  53.1522 271.2562 0001108 103.2636 188.6442 15.75777350  3282
STARLINK-35553          
1 66120U 25237G   25308.16668980 -.01499430  00000+0 -10786-1 0  9990
2 66120  53.1518 271.2648 0001132 111.7184 176.0360 15.75924930  3281
STARLINK-35631          
1 66121U 25237H   25308.16668980 -.01554414  00000+0 -11286-1 0  9991
2 66121  53.1518 271.2597 0001015 115.6778 174.2002 15.75832669  3287
STARLINK-35653          
1 66122U 25237J   25308.16668980 -.01622567  00000+0 -11690-1 0  9996
2 66122  53.1521 271.2515 0001104 113.7305 180.3100 15.75641400  3284
